STARLINK-36350          
1 67572U 26016M   26038.83336806 -.00127420  00000+0 -67222-3 0  9997
2 67572  97.2789  97.7748 0001565  88.7699  94.8560 15.80879982  3144
STARLINK-36588          
1 67573U 26016N   26038.83336806 -.00077885  00000+0 -40898-3 0  9997
2 67573  97.2817  97.7783 0001504  90.6970 101.3207 15.80843347  3297
STARLINK-36594          
1 67574U 26016P   26038.83336806 -.00059760  00000+0 -31305-3 0  9993
2 67574  97.2813  97.7804 0001267 103.8408  93.2480 15.80839293  3294
STARLINK-36400          
1 67575U 26016Q   26038.83336806 -.00195699  00000+0 -10401-2 0  9999
2 67575  97.2772  97.7820 0001575  93.4510 109.2821 15.80895247  3194
STARLINK-36591          
1 67576U 26016R   26038.83336806 -.00042438  00000+0 -22172-3 0  9991
2 67576  97.2816  97.7849 0001317  80.6807 127.9695 15.80832171  3256
STARLINK-36590          
1 67577U 26016S   26038.83336806 -.00113607  00000+0 -59930-3 0  9991
2 67577  97.2765  97.7858 0001554  96.6770 117.4070 15.80844524  3255
STARLINK-36613          
1 67578U 26016T   26038.83336806 -.00125566  00000+0 -66269-3 0  9992
2 67578  97.2788  97.7884 0001663 101.0022 119.6003 15.80866466  3251
STARLINK-36571          
1 67579U 26016U   26038.58335648 -.00011700  00000+0 -60334-4 0  9990
2 67579  97.2778  97.5272 0001492 105.6398 141.5523 15.80847819  3214
STARLINK-36612          
1 67580U 26016V   26038.58335648  .00022419  00000+0  11741-3 0  9996
2 67580  97.2776  97.5295 0001208  95.6298 157.8263 15.80828987  3217
STARLINK-36632          
1 67581U 26016W   26038.58335648  .00185088  00000+0  94844-3 0  9994
2 67581  97.2777  97.5374 0001335  59.5672 211.8325 15.80775154  3210
STARLINK-36609          
1 67582U 26016X   26038.58335648 -.00651604  00000+0 -36248-2 0  9992
2 67582  97.2765  97.5393 0000816  96.8769 180.7335 15.81040097  3210
STARLINK-36577          
1 67583U 26016Y   26038.58335648  .00046451  00000+0  24207-3 0  9992
2 67583  97.2768  97.5324 0001127  73.0048 188.8507 15.80806251  3212
